label,city,state,lon,lat,m4m,m4w,w4m,w4w,k1,c1,k2,c2,k3,c3,k4,c4,k5,c5
city,monterey,CA,-121.908915,36.606225,263,148,0,0,seeking a,11,masculine bottoms,8,male looking,7,a top,6,for masculine,6
city,cincinnati,IA,-92.953118,40.626921,1429,765,216,69,to suck,62,oral m4m,47,let s,38,for fun,33,want to,30
city,merced,CA,-120.509750,37.412623,39,39,0,39,want to,5,a fem,2,a girlfriend,2,a real,2,busco un,2
city,fort myers,FL,-81.94861,26.552895,661,522,78,43,a female,42,email buddy,41,female email,40,guy looking,18,a friend,13
city,"athens, GA",GA,-83.38908,33.944339,142,124,27,17,for fun,11,a good,7,still looking,6,country girl,5,and stroke,4
city,roanoke,TX,-97.116282,33.20743,38,109,0,40,seeking a,5,a good,4,guy looking,4,i want,4,tired of,4
city,bismarck,AR,-93.11742,34.276538,53,32,33,16,for younger,4,fun m4m,3,guy looking,3,want a,3,a boy,2
city,wyoming,IL,-89.788462,41.085606,99,136,32,57,for friends,6,new to,6,for ltr,5,for something,5,a girl,4
city,appleton,WA,-121.312852,45.850437,62,250,88,54,long term,48,term relationship,44,a good,8,for someone,7,a friend,5
city,tulsa,OK,-96.029725,36.139826,353,557,120,49,for fwb,20,bbw for,16,for ltr,13,man looking,12,want to,12
city,wausau,WI,-89.531804,44.952863,21,85,41,63,tired of,5,live in,4,long term,4,a girlfriend,3,a real,3
city,rapid city,SD,-103.317149,44.076106,0,38,38,0,a good,3,a movie,2,country girl,2,don t,2,going to,2
city,"rochester, NY",NY,-77.684264,43.286024,641,492,110,36,want to,25,i want,23,for fun,19,bottom looking,17,seeking a,17
city,muskegon,MI,-86.278985,43.295208,0,38,0,38,out there,3,the right,3,a country,2,a friend,2,best friend,2
city,syracuse,UT,-112.079415,41.096293,244,220,58,57,fun m4m,9,guy looking,9,discreet fun,8,for discreet,7,gl masc,7
city,pueblo,CO,-104.552299,38.128626,79,76,0,0,to suck,8,fuck m4m,7,n fuck,6,suck n,6,fuck me,4
city,norfolk,NE,-97.601348,41.916476,1471,995,279,187,want to,42,to suck,41,i want,34,for ltr,30,seeking a,28
city,"albany, NY",NY,-73.970812,42.614852,618,417,98,56,to suck,25,want to,17,a good,16,for fun,16,guy looking,16
city,bozeman,MT,-110.901280,45.627982,56,60,40,26,23 28,5,a girl,5,some fun,5,lets have,4,searching for,4
city,mattoon,IL,-88.247012,39.505679,0,0,0,41,new to,2,20 yr,1,22 stud,1,38 butch,1,a bestie,1
city,augusta,AR,-91.372792,35.207566,80,162,43,33,a friend,5,black male,4,for someone,4,guy looking,4,i want,4
city,southwest TX,PA,-79.439801,40.360223,13,16,24,20,to suck,5,fun and,4,for fun,3,for something,3,relacion seria,3
city,chicago,IL,-87.68732,41.811929,1934,826,148,55,to suck,62,want to,50,guy looking,44,for fun,38,i want,30
city,greenville,CA,-120.878840,40.124832,480,340,108,48,to suck,38,want to,19,i want,16,to play,16,for fun,15
city,harrisonburg,LA,-91.890463,31.746835,65,77,17,39,a friend,4,a date,3,bottom for,3,for friends,3,for jmu,3
city,sarasota,FL,-82.528488,27.331628,256,295,38,0,man with,14,seeking a,13,southern charm,13,southern man,13,to suck,13
city,"farmington, NM",NM,-108.069250,36.774472,18,28,17,73,for friend,3,friend and,3,old looking,3,the one,3,year old,3
city,eastern KY,KY,-82.818388,37.512564,193,138,6,19,out there,6,for fun,5,let s,4,lookin for,4,want to,4
city,morgantown,IN,-86.267561,39.244566,37,38,0,38,first time,5,man looking,4,for ltr,3,maybe more,3,a straight,2
city,bakersfield,CA,-118.905173,35.294405,292,213,48,45,bottom looking,18,to suck,8,want to,7,to play,6,a relationship,5
city,spokane,WA,-117.431742,47.653568,220,437,126,57,for someone,11,want to,11,i want,10,glory hole,9,guy looking,9
city,great falls,MT,-111.239305,47.619998,67,35,42,25,a girl,5,a man,3,for friendship,3,for love,3,lets have,3
city,brownsville,OR,-122.942438,44.378703,54,69,26,68,i m,5,seeking latina,5,male seeking,4,married white,4,white male,4
city,stockton,CA,-121.253872,37.889849,359,177,32,25,to suck,21,want to,17,guy looking,15,a good,7,bottom looking,7
city,cedar rapids,NE,-98.150139,41.558087,56,72,19,32,long term,5,a good,4,to play,4,for fun,3,for someone,3
city,lake city,CA,-120.179132,41.763674,0,0,0,38,for friends,3,friend with,2,sexy trucker,2,29 year,1,35 wf,1
city,provo,UT,-111.635353,40.218905,472,158,0,39,make out,13,hang out,9,a guy,8,for fun,8,up for,8
city,imperial co,CA,-115.640538,33.008903,31,20,8,,guy looking,3,i want,3,a friend,2,a hot,2,friend with,2
city,corvallis,OR,-123.445033,44.49893,23,79,20,47,new to,5,50 s,3,for ltr,3,guy looking,3,18 30,2
city,wenatchee,WA,-120.520211,47.905787,18,54,23,19,a good,4,for love,3,for someone,3,hola busco,3,maybe more,3
city,asheville,NC,-82.528558,35.620335,151,246,53,52,for fun,8,want to,7,i want,6,someone to,6,year old,6
city,mansfield,WA,-119.525987,47.847735,0,74,0,0,a d,5,d a,5,d d,5,d y,5,g a,5
city,glens falls,NY,-73.669061,43.31888,20,44,12,76,have fun,6,woman to,6,a woman,5,a friend,4,a special,4
city,rockford,WA,-117.255465,47.672177,38,113,39,0,tired of,5,maybe more,4,a friend,3,a fun,3,for fun,3
city,elmira,OR,-123.388216,44.097363,17,58,15,53,don t,4,the right,4,bi female,3,female looking,3,let s,3
city,southwest MN,PA,-79.439801,40.360223,13,16,24,20,something new,4,maybe more,3,femme looking,2,for friends,2,for love,2
city,southwest MI,PA,-79.439801,40.360223,13,16,24,20,a friend,4,family mw4w,3,friend or,3,maybe more,3,or fwbs,3
city,blacksburg,SC,-81.494193,35.10953,0,38,0,38,a sexy,3,lady for,3,the one,3,2nite mw4w,2,an old,2
city,ann arbor,MI,-83.836571,42.253502,274,177,57,25,guy looking,10,want to,10,for fun,7,for ltr,7,only read,7
city,new hampshire,OH,-83.950093,40.549772,705,713,110,0,want to,37,str8 college,28,college guy,26,for ltr,21,seeking a,20
city,southwest MS,PA,-79.439801,40.360223,13,16,24,20,i want,4,a good,3,something real,3,4 stud,2,a real,2
city,texarkana,TX,-94.39495,33.476552,31,24,8,44,girl wanted,3,ninezeroeight threefivenineeight,3,ninezerothree ninezeroeight,3,a cute,2,a stud,2
city,lake charles,LA,-93.326527,30.264232,28,39,30,74,something real,4,female friend,3,for fun,3,for someone,3,for something,3
city,bend,OR,-120.949520,44.001834,43,93,23,46,for younger,5,new to,5,i m,4,lookin for,4,a good,3
city,"birmingham, AL",AL,-86.929208,33.544622,631,342,119,55,to suck,48,a good,21,want to,19,i want,16,fun m4m,13
city,college station,TX,-96.293826,30.579234,317,132,35,12,to suck,14,for fun,12,college athlete,8,to give,7,want to,7
city,lubbock,TX,-101.821292,33.610018,192,155,0,38,let s,11,i want,7,something real,5,want to,5,a good,4
city,north platte,NE,-100.746912,41.046447,0,0,0,37,for something,3,want a,3,a gf,2,for long,2,i want,2
city,louisville,CO,-105.373507,40.087835,431,476,77,38,guy looking,17,to suck,16,want to,15,a good,14,i m,14
city,chillicothe,TX,-99.547098,34.195699,24,45,17,61,a sexy,9,female to,9,fine female,9,sexy fine,9,to penpal,9
city,springfield,OR,-122.872806,44.095761,139,378,80,53,a good,13,the one,13,out there,11,a friend,10,girls only,9
city,mankato,KS,-98.20595,39.787529,0,39,0,39,something new,3,anyone want,2,anything goes,2,femme looking,2,for femme,2
city,valdosta,GA,-83.207206,30.975119,30,54,30,42,a good,5,for friends,4,i m,4,let s,3,seeking a,3
city,grand forks,ND,-97.394446,47.933481,44,39,29,22,a woman,3,long term,3,want a,3,a cuddle,2,a girl,2
city,billings,OK,-97.408128,36.513543,35,73,25,35,tired of,5,a girl,4,for friends,4,u tired,4,want to,4
city,macon,MO,-92.451742,39.773979,37,116,39,0,a good,6,for someone,6,friends with,4,i want,4,lookin for,4
city,galveston,TX,-94.800238,29.330501,35,37,13,3,i want,4,a relationship,3,want a,3,want to,3,my area,2
city,houston,AK,-149.715167,62.280436,8125,2684,541,495,to suck,317,want to,203,guy looking,166,i want,133,for fun,127
city,tallahassee,FL,-84.29095,30.449428,216,149,76,47,guy looking,8,want to,8,with benefits,8,seeking a,7,i m,6
city,fresno,CA,-119.639658,36.746375,872,352,54,41,to suck,39,want to,30,i want,19,guy looking,16,bottom looking,15
city,"rochester, MN",MN,-92.405294,44.107815,0,37,0,37,something new,3,asian woman,2,femme looking,2,for friends,2,love adventures,2
city,beaumont,CA,-116.954753,33.92703,50,55,24,6,super 8,3,a woman,2,at super,2,for nsa,2,for someone,2
city,auburn,WA,-122.097976,47.288362,35,36,20,3,to please,4,right now,3,23 male,2,a female,2,black cock,2
city,helena,OK,-98.271091,36.546639,66,8,46,25,a girl,5,a man,3,for friendship,3,for love,3,lets have,3
city,logan,NM,-103.264281,35.52453,0,0,0,79,first time,3,for friends,3,a gf,2,bbw seeking,2,bi woman,2
city,eastern NC,KY,-82.818388,37.512564,193,138,6,19,seeking a,23,a good,17,want a,14,black woman,11,educated intelligent,10
city,modesto,CA,-120.937052,37.60396,411,188,0,0,want to,19,lookin for,11,i want,10,to meet,10,guy looking,9
city,milwaukee,WI,-87.569664,43.017412,1016,767,113,37,to suck,42,guy looking,29,want to,29,i want,21,seeking a,20
city,eau claire,WI,-91.477897,44.80456,30,126,49,47,for ltr,5,out there,5,the one,5,for something,4,a fun,3
city,fairbanks,AK,-146.275980,64.856055,6,78,23,6,for someone,5,out there,4,a good,3,for ltr,3,good woman,3
city,"athens, OH",OH,-82.013803,39.339279,7,9,8,70,a girl,2,a girlfriend,2,a real,2,bbw looking,2,let s,2
city,oneonta,AL,-86.5535,33.968171,0,0,0,38,a special,4,female looking,4,cute married,3,married female,3,special friend,3
city,denver,CO,-104.408349,39.738752,5752,2062,335,159,to suck,173,want to,152,guy looking,120,let s,94,for fun,85
city,new orleans,LA,-89.882564,30.032997,1522,504,111,111,want to,50,to suck,46,mardi gras,32,bottom looking,27,top looking,27
city,charlottesville,IN,-85.625798,39.838824,97,99,19,71,out there,6,to suck,6,a good,5,today tonight,5,a friend,4
city,meridian,CA,-121.848565,39.066931,0,0,0,39,a girlfriend,2,a sugarbabe,2,make me,2,me cum,2,sexy female,2
city,eugene,OR,-122.998790,43.863845,81,348,69,42,guy looking,8,i m,8,out there,7,for fun,6,let s,6
city,green bay,WI,-88.111252,44.42504,47,145,35,55,does love,7,long term,7,love really,7,really exist,7,a real,6
city,harrisburg,OR,-123.108438,44.273684,188,255,58,49,a friend,11,seeking a,11,want a,10,a good,7,for fun,7
city,"fayetteville, NC",NC,-79.011328,35.05425,134,284,191,55,want to,15,i want,12,for ltr,10,a good,8,for love,8
city,flint,TX,-95.390166,32.226635,47,144,28,22,long term,7,seeking a,5,a girl,3,a good,3,and fun,3
city,"richmond, VA",VA,-77.431555,37.540646,891,673,150,76,want to,31,a good,26,to suck,20,i want,19,for someone,18
city,"ames, IA",IA,-93.647237,42.045748,25,36,14,45,to play,4,let s,3,play with,3,someone to,3,the real,3
city,susanville,CA,-120.719159,40.548881,,6,1,64,a fwb,2,maybe more,2,single and,2,19 for,1,2 luv,1
city,hickory,KY,-88.640928,36.852197,53,122,51,11,a good,5,mild mild,4,seeking a,4,someone to,4,don t,3
city,missoula,MT,-114.049824,47.116034,38,38,38,0,let s,3,a fun,2,a man,2,cuddling and,2,down for,2
city,redding,CA,-122.387808,40.704337,40,114,0,0,out there,4,a good,3,for ltr,3,for something,3,something real,3
city,"york, PA",PA,-76.687826,39.972985,78,154,31,6,country girl,5,guy looking,5,nice guy,5,4 u,4,a friend,4
city,medford,OR,-122.793659,42.322392,39,153,0,39,a good,5,tired of,5,i m,4,best friend,3,for something,3
city,central NJ,AK,-151.025085,65.226375,2703,614,26,77,to suck,167,want to,118,i want,95,guys around,63,around i,60
city,state college,PA,-77.760172,40.972229,43,74,19,39,year old,7,old looking,6,seeking a,6,38 year,5,a friend,5
city,huntington,OR,-117.389163,44.432748,32,62,29,34,a good,5,for fun,4,a friend,3,for friend,3,this week,3
city,pensacola,FL,-87.275772,30.61428,74,225,39,39,for someone,10,want to,8,a good,7,out there,7,looking 4,6
city,fargo,OK,-99.622067,36.373497,51,113,53,20,for someone,6,a ltr,4,for younger,4,guy looking,4,special someone,4
city,plattsburgh,NY,-73.447398,44.685411,0,0,0,35,a lady,2,1 experience,1,2 women,1,26 yr,1,4 friend,1
city,la salle co,CO,-104.665639,40.328185,8,26,16,2,addict seeks,2,seeks same,2,special someone,2,to give,2,18 25,1
city,lawrence,NE,-98.25954,40.291047,12,60,11,73,for sexy,4,a woman,3,asian for,3,bi curious,3,bi fem,3
city,"victoria, TX",TX,-97.033759,28.752488,10,32,12,1,maybe more,3,free blow,2,i want,2,a cummins,1,a drink,1
city,albuquerque,NM,-106.672872,35.044339,1372,521,111,57,to suck,65,want to,33,for fun,29,guy looking,18,i want,18
city,port huron,MI,-82.66522,42.824095,0,38,0,37,i m,6,woman to,3,a good,2,a sexy,2,country boy,2
city,las cruces,NM,-106.604677,32.329638,148,94,20,63,want to,9,hang out,8,maybe more,7,a woman,5,a friend,4
city,shreveport,LA,-93.75256,32.607556,35,111,39,38,i want,5,a friend,4,guy looking,4,searching for,4,let s,3
city,"albany, GA",GA,-84.132357,31.591073,15,25,25,64,for friends,3,looking 4,3,couple looking,2,down to,2,for love,2
city,lynchburg,MO,-92.30882,37.522073,0,38,0,40,maybe more,5,a friend,4,femme for,3,and nice,2,for married,2
city,waterloo,NE,-96.305914,41.248299,22,38,15,45,out there,5,a nice,3,for ltr,3,long term,3,a black,2
city,long island,KS,-99.347075,39.784708,1173,726,152,0,want to,46,to suck,35,for fun,24,a nice,23,i want,22
city,houma,LA,-90.732776,29.597188,14,33,11,45,something real,4,to meet,4,follow me,3,for something,3,good woman,3
city,raleigh,IL,-88.549793,37.822856,2746,959,232,76,to suck,80,guy looking,64,want to,62,for fun,58,some fun,36
city,charleston,AR,-93.95098,35.387924,389,354,116,65,want to,15,a good,12,for ltr,12,bottom hosting,11,guy looking,11
city,lewiston,CA,-122.837262,40.736068,6,23,4,68,for friends,3,the one,3,a girl,2,for fun,2,for fwb,2
city,austin,NV,-117.196690,40.046976,4488,1526,202,125,want to,114,to suck,93,guy looking,77,seeking a,71,bottom looking,60
city,"bloomington, IL",IL,-88.939637,40.488468,48,66,13,45,for fun,5,to suck,5,maybe more,4,to meet,4,want to,4
city,humboldt,AZ,-112.252340,34.518883,36,105,25,43,for something,4,maybe more,4,new to,4,want to,4,a friend,3
city,roswell,NM,,,0,0,0,39,a woman,3,couple looking,3,for friends,3,a friend,2,maybe more,2
city,gulfport,MS,-89.031635,30.400079,58,147,36,23,want to,6,hang out,4,i m,4,a new,3,and more,3
city,"bloomington, IN",IN,-86.501543,39.173234,33,102,29,50,for someone,4,long term,4,a good,3,for dinner,3,for hot,3
city,del rio,TX,-101.230032,29.763171,7,12,2,56,a gf,4,a girl,3,gf or,2,girl to,2,good looking,2
city,new york,NY,-73.977182,40.780751,4133,,293,,to suck,101,want to,73,guy looking,56,top looking,52,bottom looking,50
city,danville,WA,-118.505768,48.954016,29,31,7,36,a good,6,a woman,3,out there,3,any ladies,2,givin head,2
city,muncie,IL,-87.844689,40.116478,38,77,0,0,nice guy,5,guy in,4,hi there,4,hung guys,4,in anderson,4
city,sioux falls,SD,-96.79134,43.674582,37,110,37,0,a good,4,for someone,4,searching for,4,tired of,4,for ltr,3
city,pittsburgh,PA,-80.024817,40.434436,2463,1187,189,77,to suck,58,want to,57,for fun,48,i m,38,i want,35
city,yakima,WA,-120.794978,46.637538,35,87,12,9,seeking a,4,for ltr,3,for someone,3,lookin for,3,male seeking,3
city,vermont,IL,-90.393432,40.285383,122,213,45,60,out there,8,cd for,7,want to,7,i want,6,to cuddle,6
city,"panama city, FL",FL,-85.916988,30.243832,35,105,0,36,i want,5,want to,5,for fun,4,a big,3,country girl,3
city,hartford,AR,-94.353779,35.060177,676,339,72,55,to suck,21,for fun,17,i host,17,male looking,16,a good,14
city,evansville,WY,-106.175375,42.899153,43,116,37,72,a good,6,maybe more,6,a friend,5,attractive professional,5,for friends,5
city,holland,TX,-97.418108,30.887588,12,31,10,85,a friend,6,family mw4w,3,for something,3,friend or,3,maybe more,3
city,western IL,NE,-97.265045,40.403717,21,46,6,37,maybe more,3,something real,3,18 year,2,being hurt,2,first time,2
city,"columbia, MO",MO,-92.102153,38.903318,81,169,72,25,i m,8,lookin for,8,a good,7,for something,7,for someone,6
city,youngstown,OH,-80.802854,41.017082,64,127,51,22,i want,6,want to,6,a friend,5,a good,4,for ltr,4
city,ventura,CA,-119.146228,34.356248,957,258,57,23,want to,41,to suck,35,cock m4m,24,i want,22,let s,17
city,fort dodge,IA,-94.166587,42.438596,31,14,10,52,a friend,2,a good,2,a woman,2,as friends,2,for femme,2
city,prescott,WA,-118.455541,46.354972,0,38,0,0,a friend,2,could use,2,guy new,2,use a,2,59 swm,1
city,laredo,TX,-99.505138,27.732094,28,32,19,32,i m,4,a girl,2,a luxurious,2,a mature,2,a parking,2
city,charlotte,TX,-98.655756,28.814293,2601,1172,342,123,to suck,74,want to,59,seeking a,46,for fun,45,guy looking,44
city,boston,IN,-84.848442,39.757864,1167,346,60,34,want to,31,to suck,29,guy looking,25,for fun,24,now m4m,19
city,worcester,PA,-75.357555,40.192881,289,240,69,21,want to,12,to suck,10,for ltr,9,lookin for,9,bi guy,8
city,reno,NV,-119.586934,40.541218,540,379,41,0,guy looking,18,want to,17,i want,12,a good,11,bottom looking,10
city,tuscaloosa,AL,-87.585902,33.307222,56,51,24,50,sexy female,4,a sexy,3,and fun,3,bottom for,3,for friend,3
city,dallas,OR,-123.337291,44.928092,9108,3178,745,399,to suck,243,want to,220,guy looking,159,for fun,154,let s,112
city,parkersburg,IL,-88.011149,38.587985,37,0,0,0,for fun,3,for same,2,fwb m4m,2,needs a,2,4 bbc,1
city,san diego,CA,-117.191848,32.751575,637,322,37,0,i want,19,to suck,18,want to,16,guy looking,15,i m,15
city,mcallen,TX,-98.224206,26.409709,267,224,80,40,a good,10,for fun,9,someone to,8,for someone,7,i want,6
city,santa maria,CA,-120.495723,34.953532,37,38,0,39,good looking,3,a good,2,curious latina,2,dude like,2,for bi,2
city,"monroe, LA",LA,-92.159354,32.490777,0,39,0,39,a real,2,for friend,2,friend with,2,fun with,2,have fun,2
city,fort smith,AR,-94.23816,35.191046,43,104,29,31,i want,5,looking 4,5,a ltr,4,for love,4,some fun,4
city,peoria,AZ,-112.187170,33.276539,39,77,40,40,a good,4,a friend,3,a relationship,3,calling all,3,country boy,3
city,"dothan, AL",AL,-85.4828,31.219697,30,71,25,59,a sexy,4,for love,4,a big,3,and flirt,3,big top,3
city,grand island,NE,-98.521343,40.872531,15,31,18,74,a friend,3,for fun,3,for long,3,for something,3,friend maybe,3
city,jersey shore,PA,-77.025687,41.208518,483,229,38,19,want to,19,to suck,16,swallow your,14,each other,13,jo touch,13
city,dayton,WA,-117.949530,46.392683,318,391,101,36,a friend,14,for fun,10,seeking a,10,a good,9,black or,9
city,omaha,TX,-94.739141,33.179537,309,467,79,40,for ltr,12,i m,12,i want,12,for someone,10,lookin for,9
city,gadsden,AZ,-114.774342,32.530155,33,51,15,11,for someone,3,i m,3,man seeking,3,a good,2,cock m4m,2
city,mobile,AL,-88.226989,30.666959,77,154,40,0,bi bottom,10,bottom looking,9,for ltr,7,for someone,6,want to,5
city,hanford,CA,-119.894727,36.138861,25,17,6,57,a friend,3,curious latina,3,let s,3,a girlfriend,2,for tonight,2
city,wichita,KS,-97.480419,37.693588,117,314,67,59,a nice,7,for ltr,7,for someone,7,long term,7,out there,7
city,"lancaster, PA",PA,-76.297582,40.0185,83,150,37,8,a good,9,for fun,6,am suppossed,4,attention right,4,divorced dad,4
city,los angeles,CA,-118.298662,33.786594,3546,1027,180,109,to suck,106,want to,78,guy looking,72,i m,59,i want,50
city,eastern WV,KY,-82.818388,37.512564,193,138,6,19,a friend,2,discreet fun,2,for someone,2,fun with,2,to suck,2
city,moses lake,WA,-119.298979,47.180684,0,0,0,39,i want,3,a fun,2,for friends,2,for fwb,2,gay or,2
city,"jackson, MI",MI,-84.213755,42.252847,34,55,10,70,a girl,5,some fun,4,couple seeking,3,family mw4w,3,for love,3
city,bellingham,WA,-121.988548,48.814753,28,115,38,20,a nice,4,guy looking,4,year old,4,30 year,3,for ltr,3
city,"jacksonville, FL",FL,,,1171,659,133,102,to suck,37,want to,35,i want,31,i m,26,a good,22
city,"jackson, MS",MS,-89.992257,32.319905,102,160,41,54,want to,7,let s,6,to suck,5,a big,4,a good,4
city,maine,NY,-76.046399,42.253754,534,500,81,0,want to,24,for fun,17,seeking a,15,fun m4m,14,to suck,13
city,cookeville,TN,-85.469451,36.182723,15,41,19,18,hosting in,3,in mcminnville,3,a good,2,a real,2,and more,2
city,lansing,KS,-94.883026,39.233204,94,139,57,66,to suck,8,cock to,7,want to,7,a white,6,cant i,6
city,southwest VA,PA,-79.439801,40.360223,13,16,24,20,a friend,4,for love,4,with benefits,4,needing to,3,something new,3
city,boulder,UT,-111.308206,37.844777,106,158,29,15,for someone,8,i want,7,someone to,7,want to,7,guy looking,6
city,"brunswick, GA",GA,-81.530477,31.280403,32,32,24,40,a new,3,friend with,3,i m,3,want a,3,a hott,2
city,"columbus, GA",GA,-84.874123,32.491005,58,131,73,22,a good,6,military man,5,out there,5,a soldier,4,for soldier,4
city,western MD,NE,-97.265045,40.403717,21,46,6,37,for friendship,3,i m,3,a friend,2,a good,2,a new,2
city,lexington,OR,-119.638037,45.493821,296,347,79,32,to suck,18,for bbc,16,latino looking,16,a good,13,for fun,13
city,terre haute,IN,-87.410094,39.433602,25,36,37,56,a good,5,looking 4,5,i want,4,for fwb,3,good man,3
city,kirksville,MO,-92.609514,40.165717,3,8,4,61,a woman,4,i m,4,a friend,2,cuddle buddy,2,fun w4w,2
city,kalamazoo,MI,,,36,84,26,79,for something,5,a friend,4,for ltr,4,family mw4w,3,friend or,3
city,"jackson, TN",TN,-88.841225,35.612405,63,98,33,50,cool girl,5,for ltr,5,a good,4,black male,4,i m,4
city,central SD,AK,-151.025085,65.226375,2703,614,26,77,a good,2,and used,2,be owned,2,for real,2,owned and,2
city,roseburg,OR,-123.360805,43.053573,0,37,0,39,maybe more,4,i m,3,4 a,2,country girl,2,friends maybe,2
city,hattiesburg,MS,-89.294772,31.172142,27,52,37,47,for someone,3,for something,3,out there,3,something real,3,want to,3
city,madison,CA,-121.972096,38.671903,214,338,75,39,straight guy,11,a straight,10,for fun,10,guy looking,9,to suck,9
city,ocala,FL,-82.087458,29.240728,75,151,39,0,for fun,8,around ocala,6,fun female,6,female around,5,for ltr,5
city,wichita falls,TX,-98.576573,33.87121,11,54,17,3,a good,3,for ltr,3,a country,2,attractive and,2,best friend,2
city,battle creek,NE,-97.568855,41.976904,16,21,15,81,for something,6,a friend,5,family mw4w,4,our family,4,something real,4
city,knoxville,AR,-93.335178,35.385081,651,505,96,64,to suck,41,a good,29,want to,18,i want,17,lookin for,17
city,toledo,WA,-122.794980,46.456038,174,248,63,26,guy looking,9,seeking a,9,to suck,8,for someone,7,for friends,6
city,reading,KS,-96.01436,38.533232,75,117,0,0,i m,6,for ltr,4,for younger,4,m looking,4,23 m,2
city,yuma,AZ,-114.074901,32.751632,50,53,16,1,a friend,4,para algo,4,algo casual,3,busca chica,3,caliente para,3
city,central MI,AK,-151.025085,65.226375,2703,614,26,77,a girl,4,the one,4,a good,3,for something,3,i m,3
city,nashville,AR,-93.942206,34.024903,2747,989,191,75,to suck,92,want to,77,guy looking,56,i want,56,let s,47
city,boise,ID,-116.243984,43.459855,269,436,124,62,out there,16,want to,16,let s,9,in boise,8,the one,8
city,"decatur, IL",IL,-88.981511,39.853981,8,19,14,48,i want,3,for someone,2,long term,2,maybe more,2,poly amorous,2
city,butte,NE,-98.847065,42.911492,67,11,49,25,a girl,5,a man,3,for friendship,3,for love,3,lets have,3
city,las vegas,NV,-114.972061,35.927901,5162,1946,268,272,to suck,175,want to,110,guy looking,88,let s,77,for fun,74
city,statesboro,GA,-81.715799,32.450032,15,33,15,18,for something,4,something new,3,4 a,2,a live,2,a woman,2
city,lawton,OK,-98.387482,34.560957,24,57,38,12,looking 4,4,new to,4,a real,3,bottom hottie,3,good guy,3
city,baltimore,OH,-82.665141,39.77796,2701,1051,218,154,to suck,107,want to,71,bottom looking,48,guy looking,44,a good,39
city,san luis obispo,CA,-120.455345,35.347065,142,143,36,36,to suck,6,for fun,5,n go,5,a movie,4,a nice,4
city,owensboro,KY,-87.112823,37.745491,0,0,0,39,a gf,1,a girlfriend,1,a gur,1,a horny,1,a lady,1
city,meadville,MO,-93.295805,39.795407,0,0,0,37,3 way,2,bi f,2,f wanted,2,for 3,2,wanted for,2
city,corpus christi,TX,-97.463213,27.777,176,178,45,33,i m,12,giving head,11,m giving,11,for ltr,7,a good,6
city,tuscarawas co,OH,-81.406883,40.395881,6,14,11,45,bi f,3,for friends,3,3 way,2,9 or,2,a friend,2
city,odessa,WA,-118.658816,47.344402,76,153,40,39,to suck,9,a good,6,a real,6,some cock,6,for fun,5
city,huntsville,UT,-111.715855,41.266035,152,215,49,29,i m,8,long term,6,a friend,5,for someone,5,looking 4,5
city,"erie, PA",PA,-80.064915,42.182748,44,80,57,23,fun and,4,i m,4,a nice,3,for friends,3,for love,3
city,williamsport,IN,-87.403882,40.314172,52,43,24,69,a friend,6,for fun,4,out there,4,seeking a,4,some fun,4
city,atlanta,ID,-115.253751,43.847915,7901,3263,771,809,to suck,250,want to,186,seeking a,155,guy looking,136,i want,133
city,stillwater,OK,-96.987458,36.093665,22,49,32,37,for someone,4,for fun,3,girl looking,3,hang out,3,someone special,3
city,mason city,NE,-99.37871,41.283369,36,0,0,0,discreet fun,2,fuck you,2,fun m4m,2,love not,2,male looking,2
city,bowling green,MO,-91.174859,39.316369,44,58,27,41,a good,5,i m,5,out there,4,to suck,3,wanting to,3
city,bemidji,MN,-94.822154,47.625699,,11,11,52,maybe more,4,for love,3,something new,3,for friends,2,for something,2
city,des moines,NM,-103.505541,36.369783,125,333,106,47,a good,9,for ltr,9,want to,9,long term,8,out there,8
city,oklahoma city,OK,-97.407537,35.551409,1244,825,150,73,want to,46,i want,35,to suck,34,for older,33,guy looking,29
city,iowa city,IA,-91.589264,41.600628,12,54,21,51,for love,6,for fun,4,have fun,4,a real,3,a woman,2
city,seattle,WA,-122.264256,47.776875,400,258,77,38,want to,15,let s,10,to meet,10,for ltr,9,guy looking,9
city,salina,UT,-111.908156,38.921403,0,0,0,38,a female,2,a woman,2,female friend,2,something new,2,00 tonight,1
city,kalispell,MT,-114.256123,48.240382,8,39,16,58,a girl,5,guy looking,4,for friends,3,for something,3,lets have,3
city,annapolis,CA,-123.386924,38.710387,73,71,41,4,guy looking,5,seeking a,4,to give,4,a nice,3,a truely,3
city,"wilmington, NC",NC,-77.91859,34.127458,81,189,63,20,seeking a,8,or bi,7,out there,7,str8 or,7,i want,6
city,myrtle beach,SC,,,144,181,38,0,a friend,6,a nice,6,top m4m,6,want to,6,for someone,5
city,utica,NE,-97.292178,40.938023,38,89,31,59,for ltr,6,bi female,4,for older,4,swm seeks,4,a fun,3
city,ashtabula,OH,-80.955313,41.730146,6,32,5,48,guy looking,3,i want,3,nice guy,3,3 way,2,a friend,2
city,chautauqua,KS,-96.178281,37.026243,13,30,14,72,a girlfriend,3,curious w4w,3,or more,3,a beautiful,2,a friend,2
city,indianapolis,IN,-86.132837,39.779492,1402,703,156,88,to suck,62,want to,40,i want,25,guy looking,21,a good,20
city,columbia,CA,-120.363545,38.061003,480,328,115,47,want to,28,i want,25,to suck,18,a top,13,for ltr,12
city,zanesville,IN,-85.282422,40.918797,14,22,14,70,a girl,3,bbw looking,3,for something,3,let s,3,a female,2
city,sacramento,CA,-121.444429,38.377411,357,142,37,0,to suck,15,i want,10,want to,10,guy looking,9,bottom hosting,6
city,kansas city,KS,-94.749538,39.096551,2159,1121,249,85,to suck,74,want to,64,i want,44,guy looking,38,want a,38
city,"washington, DC",DC,-77.014647,38.893311,991,279,82,20,to suck,32,guy looking,22,bottom looking,17,bottom for,16,want to,16
city,chattanooga,OK,-98.654352,34.424316,202,218,74,27,a good,11,a special,9,for fun,9,special friend,9,for someone,8
city,south bend,WA,-123.834262,46.588006,75,150,39,0,for love,6,for something,5,someone to,5,the right,5,for ltr,4
city,abilene,TX,-99.711665,32.466474,39,69,16,68,a gf,4,guy looking,3,i want,3,lookin for,3,stud looking,3
city,el paso,TX,-106.299987,31.694842,866,462,96,56,to suck,26,want to,22,guy looking,19,guy with,17,i m,17
city,grand rapids,MN,-93.921429,47.087782,136,345,69,68,maybe more,12,for someone,10,i m,10,long term,10,guy looking,9
city,"sheboygan, WI",WI,-87.860803,43.775428,0,0,0,37,dating fwb,2,down to,2,g f,2,long term,2,looking dating,2
city,southwest KS,PA,-79.439801,40.360223,13,16,24,20,for fun,3,for someone,3,maybe more,3,something real,3,want to,3
city,twin falls,ID,-114.519536,42.456273,16,52,18,71,a girl,3,for fun,3,for someone,3,just want,3,long term,3
city,"columbus, OH",OH,-83.011389,39.969036,1746,889,195,70,to suck,68,want to,36,i m,33,guy looking,30,i want,28
city,savannah,MO,-94.837827,39.953094,152,220,38,39,guy looking,7,i m,7,want to,7,for ltr,5,a real,4
city,mendocino co,CA,-123.734377,39.319949,0,0,0,34,bi curious,2,bi or,2,for fun,2,i wanna,2,maybe more,2
city,montgomery,TX,-95.49833,30.354902,36,73,0,39,for young,3,let s,3,older woman,3,sexy female,3,white male,3
city,ithaca,NE,-96.523011,41.147084,66,73,21,79,let s,6,for fun,4,seeking a,4,a girl,3,a woman,3
city,"springfield, IL",IL,-89.606017,39.749457,62,77,28,38,i m,10,to suck,8,for someone,7,guy in,7,m looking,7
city,winchester,OR,-123.325617,43.333141,15,76,19,2,guy looking,4,man looking,4,for something,3,friends first,3,i hate,3
city,eastern CO,KY,-82.818388,37.512564,193,138,6,19,_ _,2,a good,2,to find,2,1 good,1,4 latina,1
city,kokomo,IN,-86.11894,40.469625,9,40,17,51,a female,2,boy looking,2,country boy,2,first time,2,for fwb,2
city,eastern CT,KY,-82.818388,37.512564,193,138,6,19,guy looking,12,good looking,7,to suck,7,want to,7,man looking,6
city,"jacksonville, NC",NC,-77.444847,34.720825,38,153,120,24,a good,8,out there,7,for military,6,for someone,6,some fun,5
city,amarillo,TX,-101.895089,35.401475,156,177,102,110,a real,8,for something,8,hey you,8,lookin for,8,want a,8
city,jonesboro,TX,-97.845634,31.559947,34,55,22,27,want to,6,to suck,4,a good,3,have fun,3,i m,3
city,"fayetteville, AR",AR,-94.309322,36.087732,111,198,67,26,a good,8,for something,7,for someone,6,country boy,5,lookin for,5
city,lincoln,WA,-118.399551,47.60894,38,155,0,78,out there,6,a date,5,a woman,5,maybe more,4,want a,4
city,saginaw,OR,-122.998790,43.863845,0,76,39,38,something real,4,a friend,3,best friend,3,for something,3,i m,3
city,baton rouge,LA,-91.080373,30.51589,415,275,91,40,to suck,14,i m,13,want to,13,top looking,11,seeking a,10
city,orlando,OK,-97.408181,35.944569,3544,1263,192,116,to suck,149,want to,97,seeking a,87,i want,73,for fun,66
city,san antonio,NM,-106.876440,33.963287,3556,1259,338,148,to suck,129,want to,85,guy looking,78,fuck me,53,i want,52
city,duluth,MN,-92.442797,47.640367,25,78,25,45,older for,4,out there,4,for friends,3,for love,3,i want,3
city,chico,CA,-121.572986,39.723898,57,96,23,38,guy for,4,a friend,3,a nice,3,and play,3,for someone,3
city,brainerd,MN,-94.099983,46.350195,5,26,5,51,for friends,3,maybe more,3,something new,3,a woman,2,and laughter,2
city,elko,NV,-115.529596,41.059414,2,15,4,72,someone to,4,just want,3,a gf,2,a girl,2,a woman,2
city,central LA,AK,-151.025085,65.226375,2703,614,26,77,for someone,5,out there,4,a good,3,a stud,3,female friend,3
city,la crosse,KS,-99.300546,38.531867,22,86,45,49,for love,4,for friends,3,for fun,3,friends with,3,good man,3
city,altoona,KS,-95.661801,37.525023,114,178,64,134,for friendship,10,want to,10,i m,8,out there,8,true love,8
city,cleveland,NM,-105.382548,36.007478,1575,712,134,86,to suck,60,want to,57,guy looking,29,i want,29,white male,26
city,new haven,MO,-91.247283,38.558487,583,287,39,0,to suck,36,guy looking,18,a nice,14,for fun,14,want to,14
city,delaware,OK,-95.641981,36.777208,945,352,69,36,to suck,35,want to,32,top looking,20,for fun,19,guy looking,18
city,fort wayne,IN,-85.070713,41.093763,75,196,59,69,a friend,10,for fun,7,for something,6,want to,6,a good,5
city,san angelo,TX,-100.689590,31.39577,0,37,0,0,a cup,2,black male,2,male looking,2,seeking ltr,2,325 west,1
city,western KY,NE,-97.265045,40.403717,21,46,6,37,for fun,5,a good,4,lookin for,4,new to,4,for female,3
city,binghamton,NY,-75.922159,42.173709,29,89,20,55,a woman,7,for ltr,6,seeking a,6,go to,4,maybe more,4
city,"charleston, WV",WV,-81.554655,38.296818,43,56,31,31,want to,4,a friend,3,a good,3,for fun,3,i want,3
city,anchorage,AK,-149.440311,61.108864,138,273,77,22,want to,7,a friend,6,for ltr,6,i m,6,a ltr,5
city,topeka,KS,-95.769657,39.042939,14,74,20,66,a friend,4,a woman,4,for sexy,4,with benefits,4,asian for,3
city,joplin,MO,-94.374452,37.099335,29,107,45,49,i want,6,a woman,4,do good,4,for ltr,4,get lucky,4
city,greensboro,IN,-85.464036,39.878933,625,356,113,66,w w,28,dick m4m,14,want to,14,guy looking,13,top for,12
city,fredericksburg,TX,-98.8936,30.313385,103,184,54,16,i m,6,long term,6,seeking a,6,a good,5,country boy,5
city,orange co,CA,-117.769442,33.640302,6923,2025,297,112,to suck,301,want to,176,i want,163,guy looking,152,for fun,123
city,waco,TX,-97.16148,31.541116,81,78,40,11,jock seeking,6,lookin for,6,muscle cock,6,seeking muscle,6,i want,5
city,philadelphia,MO,-91.738022,39.82473,6040,1704,297,222,to suck,184,want to,123,for fun,96,guy looking,91,for now,81
city,daytona beach,FL,-81.172169,29.022729,183,256,60,17,a friend,13,want to,10,maybe more,9,out there,7,for friends,6
city,sioux city,IA,-96.378007,42.423688,0,37,0,74,for something,3,friend maybe,3,i m,3,out there,3,something real,3
city,tippecanoe,IN,-86.12282,41.215971,35,71,29,56,a good,4,bottom need,4,looking 4,4,need something,4,something m4m,4
city,klamath falls,OR,-121.685853,42.61276,43,25,29,32,i m,4,older women,3,a friend,2,a good,2,a special,2
city,palm springs,CA,-116.055617,33.752886,988,143,0,0,30 55,31,cut white,30,to suck,26,bi married,24,men 30,23
city,memphis,TX,-100.539782,34.730964,818,404,77,117,i want,24,want to,22,guy looking,19,to suck,16,for older,15
city,flagstaff,AZ,-112.052427,35.630842,80,56,14,7,dl native,4,guy seeking,3,looking 4,3,2 great,2,4 lover,2
city,fort collins,CO,-105.569245,40.628112,101,277,60,30,want to,12,a relationship,7,i m,7,girl to,6,guy looking,6
city,santa fe,ID,-116.430997,47.154416,191,38,0,38,to suck,7,for ltr,5,fun m4m,5,i want,5,guy looking,4
city,tucson,AZ,-110.859106,32.071764,372,480,77,49,want to,18,for ltr,12,guy looking,12,want a,12,for older,10
city,north MS,SC,-81.07622,33.554183,73,112,40,38,a good,5,i m,5,let s,5,want to,5,a friend,4
city,san marcos,CA,-116.846046,33.016928,38,37,0,0,for younger,4,420older for,3,younger m4m,3,a relationship,2,attractive married,2
city,lakeland,LA,-91.446813,30.575993,71,139,45,17,tired of,6,under 25,6,woman under,6,a bf,5,a friend,5
city,frederick,CO,-104.938057,40.123557,52,78,23,4,bottom m4m,4,cock tall,4,guy looking,4,handsome jock,4,huge cock,4
city,janesville,CA,-120.506184,40.298255,30,67,14,7,long term,4,a ltr,3,let s,3,the one,3,19 32,2
city,little rock,AR,-92.392487,34.751918,253,333,75,39,to suck,12,a good,9,a friend,8,for someone,8,little rock,8
city,minneapolis,KS,-97.650674,39.141097,3998,1743,262,74,to suck,124,want to,104,guy looking,78,for fun,74,my ass,59
city,salem,OR,-123.006606,44.965541,38,153,0,0,a friend,4,long term,4,want to,4,country girl,3,dinner date,3
city,portland,OR,-122.374776,45.580557,255,145,39,0,want to,10,to suck,8,i m,7,a nice,6,guy looking,6
city,"florence, SC",SC,-79.622227,34.061465,32,43,21,11,bottom m4m,3,a date,2,a good,2,bdsm enjoyment,2,blow job,2
city,allentown,GA,-83.20951,32.606433,240,340,61,11,a friend,11,let s,10,m m,9,for fun,8,a real,7
city,gainesville,TX,-97.03692,33.610384,184,147,30,19,lookin for,6,want to,6,bottom m4m,5,for older,5,for younger,5
city,"clarksville, TN",TN,-87.353008,36.531398,32,128,88,28,a chance,5,a friend,5,a good,5,a real,5,i want,5
city,manhattan,NV,-116.310045,38.702281,0,38,0,37,a friend,3,for someone,3,a good,2,a woman,2,bi curious,2
city,phoenix,OR,-122.814640,42.262556,6392,2611,461,230,to suck,239,want to,218,i want,143,guy looking,127,for fun,94
city,dubuque,IA,-90.804116,42.484861,10,38,14,64,a tall,3,guy m4m,3,tall guy,3,again on,2,for love,2
city,kenai,AK,-150.407958,60.422041,41,20,60,22,a friend,3,bbw looking,3,want to,3,a good,2,a nice,2
city,scranton,AR,-93.53721,35.344745,219,148,39,38,looking 4,11,want to,7,and go,6,for someone,6,for something,6
city,ogden,UT,-111.956721,41.255285,80,39,0,40,blowjob m4m,3,fun m4m,3,a friend,2,a gf,2,a girl,2
city,watertown,SD,-97.177954,44.955643,15,98,55,41,a nice,5,out there,4,a friend,3,country boy,3,country girl,3
city,lafayette,OR,-123.110948,45.232882,87,107,45,48,something real,6,for something,5,for fun,4,guy looking,4,man looking,4
city,boone,CO,-104.209119,38.319575,25,22,15,26,go get,3,a drink,2,drink tonight,2,for someone,2,guy with,2
city,buffalo,WY,-106.561068,44.122611,672,464,94,50,to suck,23,oral slut,18,slut m4m,18,a bj,11,a good,10
city,santa barbara,CA,-119.848555,34.262834,501,138,35,0,to suck,16,for older,12,i m,11,i want,11,want to,11
