label,city,state,lon,lat,m4m,m4w,w4m,w4w,k1,c1,k2,c2,k3,c3,k4,c4,k5,c5
city,monterey,CA,-121.908915,36.606225,263,148,0,0,m4m,73,top,28,bottom,21,guy,21,seeking,21
city,cincinnati,IA,-92.953118,40.626921,1429,765,216,69,m4m,488,fun,138,need,121,guy,120,suck,103
city,merced,CA,-120.509750,37.412623,39,39,0,39,m4m,9,guy,6,need,6,seeking,6,want,6
city,fort myers,FL,-81.94861,26.552895,661,522,78,43,m4m,202,female,59,fun,58,guy,57,woman,54
city,"athens, GA",GA,-83.38908,33.944339,142,124,27,17,m4m,32,seeking,26,fun,20,man,18,good,17
city,roanoke,TX,-97.116282,33.20743,38,109,0,40,seeking,15,woman,15,good,10,guy,9,relationship,8
city,bismarck,AR,-93.11742,34.276538,53,32,33,16,m4m,11,man,9,fun,8,real,7,guy,6
city,wyoming,IL,-89.788462,41.085606,99,136,32,57,m4m,35,fun,17,friend,14,more,14,m4w,13
city,appleton,WA,-121.312852,45.850437,62,250,88,54,relationship,55,long,48,term,48,fun,19,guy,19
city,tulsa,OK,-96.029725,36.139826,353,557,120,49,m4m,114,fwb,57,guy,47,seeking,44,fun,40
city,wausau,WI,-89.531804,44.952863,21,85,41,63,real,11,seeking,11,guy,10,fun,8,girl,8
city,rapid city,SD,-103.317149,44.076106,0,38,38,0,m4w,6,good,4,new,4,someone,4,trying,4
city,"rochester, NY",NY,-77.684264,43.286024,641,492,110,36,m4m,136,seeking,72,fun,64,guy,63,m4w,47
city,muskegon,MI,-86.278985,43.295208,0,38,0,38,girl,7,woman,6,friends,5,fun,5,real,5
city,syracuse,UT,-112.079415,41.096293,244,220,58,57,fun,41,m4m,41,seeking,36,guy,23,woman,22
city,pueblo,CO,-104.552299,38.128626,79,76,0,0,m4m,25,fuck,16,need,12,suck,10,m4w,8
city,norfolk,NE,-97.601348,41.916476,1471,995,279,187,m4m,396,bottom,141,seeking,121,top,117,fun,107
city,"albany, NY",NY,-73.970812,42.614852,618,417,98,56,m4m,117,guy,64,fun,60,seeking,59,bottom,52
city,bozeman,MT,-110.901280,45.627982,56,60,40,26,girl,17,m4m,13,fun,12,seeking,11,man,8
city,mattoon,IL,-88.247012,39.505679,0,0,0,41,curious,4,new,4,fwb,3,need,3,stud,3
city,augusta,AR,-91.372792,35.207566,80,162,43,33,fun,19,m4m,19,guy,18,seeking,17,black,13
city,southwest TX,PA,-79.439801,40.360223,13,16,24,20,m4m,11,fun,9,something,6,cock,5,suck,5
city,chicago,IL,-87.68732,41.811929,1934,826,148,55,m4m,507,fun,187,guy,171,need,152,top,147
city,greenville,CA,-120.878840,40.124832,480,340,108,48,m4m,124,seeking,56,fun,51,suck,48,need,47
city,harrisonburg,LA,-91.890463,31.746835,65,77,17,39,seeking,11,fun,9,friend,7,bottom,6,date,6
city,sarasota,FL,-82.528488,27.331628,256,295,38,0,m4m,83,seeking,42,fun,37,woman,36,guy,29
city,"farmington, NM",NM,-108.069250,36.774472,18,28,17,73,fun,8,seeking,7,friend,6,friends,6,fwb,6
city,eastern KY,KY,-82.818388,37.512564,193,138,6,19,fun,10,seeking,10,women,9,love,8,out,8
city,morgantown,IN,-86.267561,39.244566,37,38,0,38,girl,7,man,7,time,7,first,6,m4m,6
city,bakersfield,CA,-118.905173,35.294405,292,213,48,45,m4m,70,bottom,39,seeking,29,top,27,guy,24
city,spokane,WA,-117.431742,47.653568,220,437,126,57,m4m,78,seeking,44,guy,36,girl,34,man,33
city,great falls,MT,-111.239305,47.619998,67,35,42,25,m4m,16,girl,12,fun,8,man,8,friend,7
city,brownsville,OR,-122.942438,44.378703,54,69,26,68,m4m,16,seeking,13,married,10,woman,10,attractive,9
city,stockton,CA,-121.253872,37.889849,359,177,32,25,m4m,81,fun,37,guy,37,need,34,cock,33
city,cedar rapids,NE,-98.150139,41.558087,56,72,19,32,m4m,15,woman,10,fun,9,love,8,seeking,8
city,lake city,CA,-120.179132,41.763674,0,0,0,38,friend,4,sexy,4,w4w,4,friends,3,seeking,3
city,provo,UT,-111.635353,40.218905,472,158,0,39,m4m,64,fun,47,guy,36,out,32,need,23
city,imperial co,CA,-115.640538,33.008903,31,20,8,5,guy,6,m4m,5,want,5,horny,4,young,4
city,corvallis,OR,-123.445033,44.49893,23,79,20,47,s,14,girl,11,guy,10,love,10,new,9
city,wenatchee,WA,-120.520211,47.905787,18,54,23,19,fun,8,seeking,7,girl,6,lady,6,love,6
city,asheville,NC,-82.528558,35.620335,151,246,53,52,m4m,33,woman,25,seeking,22,fun,19,girl,19
city,mansfield,WA,-119.525987,47.847735,0,74,0,0,d,19,m,13,woman,12,s,11,y,7
city,glens falls,NY,-73.669061,43.31888,20,44,12,76,woman,18,friend,12,fun,10,w4w,9,female,8
city,rockford,WA,-117.255465,47.672177,38,113,39,0,fun,14,girl,13,woman,13,m4m,11,m4w,11
city,elmira,OR,-123.388216,44.097363,17,58,15,53,fun,10,bi,9,woman,9,female,8,m4m,7
city,southwest MN,PA,-79.439801,40.360223,13,16,24,20,something,7,love,6,more,6,friends,5,w4w,5
city,southwest MI,PA,-79.439801,40.360223,13,16,24,20,girl,9,friends,7,w4w,7,friend,6,woman,6
city,blacksburg,SC,-81.494193,35.10953,0,38,0,38,sexy,6,w4w,5,friend,4,fun,4,girl,4
city,ann arbor,MI,-83.836571,42.253502,274,177,57,25,m4m,52,guy,34,seeking,34,top,22,fun,19
city,new hampshire,OH,-83.950093,40.549772,705,713,110,0,m4m,187,guy,82,seeking,63,woman,59,fun,58
city,southwest MS,PA,-79.439801,40.360223,13,16,24,20,w4w,9,curious,6,real,5,something,5,want,5
city,texarkana,TX,-94.39495,33.476552,31,24,8,44,girl,10,m4m,9,need,7,woman,7,friend,6
city,lake charles,LA,-93.326527,30.264232,28,39,30,74,man,10,woman,10,friends,9,w4w,9,need,8
city,bend,OR,-120.949520,44.001834,43,93,23,46,fun,12,new,10,m4m,9,love,8,man,8
city,"birmingham, AL",AL,-86.929208,33.544622,631,342,119,55,m4m,130,fun,71,suck,62,need,58,black,55
city,college station,TX,-96.293826,30.579234,317,132,35,12,m4m,55,fun,34,need,30,guy,22,suck,18
city,lubbock,TX,-101.821292,33.610018,192,155,0,38,m4m,36,fun,18,s,16,want,14,m4w,13
city,north platte,NE,-100.746912,41.046447,0,0,0,37,want,4,woman,4,something,3,w4w,3,bi,2
city,louisville,CO,-105.373507,40.087835,431,476,77,38,m4m,108,guy,55,woman,50,seeking,48,fun,46
city,chillicothe,TX,-99.547098,34.195699,24,45,17,61,female,15,sexy,13,girl,11,cute,10,seeking,10
city,springfield,OR,-122.872806,44.095761,139,378,80,53,woman,35,friend,30,guy,26,m4m,26,girl,25
city,mankato,KS,-98.20595,39.787529,0,39,0,39,femme,5,girl,5,something,5,love,4,m4w,4
city,valdosta,GA,-83.207206,30.975119,30,54,30,42,girl,8,good,8,m4m,8,seeking,8,guy,7
city,grand forks,ND,-97.394446,47.933481,44,39,29,22,m4m,13,ltr,8,seeking,7,guy,6,want,6
city,billings,OK,-97.408128,36.513543,35,73,25,35,friend,9,out,8,want,8,woman,8,girl,7
city,macon,MO,-92.451742,39.773979,37,116,39,0,m4m,12,seeking,12,need,10,fun,9,good,9
city,galveston,TX,-94.800238,29.330501,35,37,13,3,m4m,13,want,7,fun,5,relationship,5,need,4
city,houston,AK,-149.715167,62.280436,8125,2684,541,495,m4m,1910,top,910,bottom,777,guy,758,now,585
city,tallahassee,FL,-84.29095,30.449428,216,149,76,47,m4m,45,guy,25,seeking,25,woman,20,black,17
city,fresno,CA,-119.639658,36.746375,872,352,54,41,m4m,186,bottom,75,need,73,guy,65,cock,64
city,"rochester, MN",MN,-92.405294,44.107815,0,37,0,37,woman,11,something,7,friends,5,love,5,femme,4
city,beaumont,CA,-116.954753,33.92703,50,55,24,6,m4m,10,woman,10,m4w,8,seeking,6,love,5
city,auburn,WA,-122.097976,47.288362,35,36,20,3,m4m,11,seeking,7,black,6,female,6,white,6
city,helena,OK,-98.271091,36.546639,66,8,46,25,m4m,15,girl,8,man,8,friend,6,fun,6
city,logan,NM,-103.264281,35.52453,0,0,0,79,friend,8,w4w,7,woman,7,first,6,friends,6
city,eastern NC,KY,-82.818388,37.512564,193,138,6,19,seeking,49,woman,48,m4m,30,fun,27,good,27
city,modesto,CA,-120.937052,37.60396,411,188,0,0,m4m,99,guy,38,fun,31,suck,28,top,28
city,milwaukee,WI,-87.569664,43.017412,1016,767,113,37,m4m,269,fun,105,guy,103,seeking,85,bottom,81
city,eau claire,WI,-91.477897,44.80456,30,126,49,47,real,12,fun,11,out,11,someone,10,woman,10
city,fairbanks,AK,-146.275980,64.856055,6,78,23,6,good,6,woman,6,m4w,5,s,5,someone,5
city,"athens, OH",OH,-82.013803,39.339279,7,9,8,70,seeking,7,woman,6,bbw,5,ltr,5,w4w,5
city,oneonta,AL,-86.5535,33.968171,0,0,0,38,female,8,friend,6,cute,5,girl,5,special,4
city,denver,CO,-104.408349,39.738752,5752,2062,335,159,m4m,1151,guy,490,bottom,487,fun,479,top,457
city,new orleans,LA,-89.882564,30.032997,1522,504,111,111,m4m,403,top,144,bottom,124,fun,120,guy,115
city,charlottesville,IN,-85.625798,39.838824,97,99,19,71,m4m,21,seeking,16,friend,14,woman,14,fun,13
city,meridian,CA,-121.848565,39.066931,0,0,0,39,female,4,need,3,bi,2,cum,2,first,2
city,eugene,OR,-122.998790,43.863845,81,348,69,42,guy,29,fun,24,woman,21,girl,20,s,20
city,green bay,WI,-88.111252,44.42504,47,145,35,55,woman,23,real,19,man,16,love,15,seeking,15
city,harrisburg,OR,-123.108438,44.273684,188,255,58,49,m4m,53,fun,34,seeking,34,guy,22,bottom,20
city,"fayetteville, NC",NC,-79.011328,35.05425,134,284,191,55,m4m,38,seeking,38,man,37,woman,35,ltr,32
city,flint,TX,-95.390166,32.226635,47,144,28,22,seeking,23,m4w,21,friend,15,fun,14,women,13
city,"richmond, VA",VA,-77.431555,37.540646,891,673,150,76,m4m,164,bottom,95,fun,95,top,92,white,85
city,"ames, IA",IA,-93.647237,42.045748,25,36,14,45,seeking,9,woman,9,bi,6,fun,6,girl,6
city,susanville,CA,-120.719159,40.548881,4,6,1,64,fwb,7,girl,5,femme,4,friends,3,love,3
city,hickory,KY,-88.640928,36.852197,53,122,51,11,m4m,18,love,14,lady,10,one,9,s,9
city,missoula,MT,-114.049824,47.116034,38,38,38,0,seeking,7,m4m,6,fun,5,love,5,man,5
city,redding,CA,-122.387808,40.704337,40,114,0,0,m4w,9,anyone,8,out,8,love,7,m4m,7
city,"york, PA",PA,-76.687826,39.972985,78,154,31,6,m4m,24,guy,21,girl,16,ltr,12,man,11
city,medford,OR,-122.793659,42.322392,39,153,0,39,seeking,14,single,14,guy,12,good,10,woman,10
city,central NJ,AK,-151.025085,65.226375,2703,614,26,77,m4m,485,suck,262,guy,232,fun,222,cock,202
city,state college,PA,-77.760172,40.972229,43,74,19,39,woman,16,seeking,11,fun,10,real,8,someone,8
city,huntington,OR,-117.389163,44.432748,32,62,29,34,ltr,9,woman,9,friend,8,good,8,m4m,8
city,pensacola,FL,-87.275772,30.61428,74,225,39,39,m4m,19,guy,17,woman,17,good,16,fun,15
city,fargo,OK,-99.622067,36.373497,51,113,53,20,fun,13,ltr,13,seeking,10,someone,10,girl,9
city,plattsburgh,NY,-73.447398,44.685411,0,0,0,35,w4w,9,woman,5,girl,4,women,4,tonight,3
city,la salle co,CO,-104.665639,40.328185,8,26,16,2,something,4,give,3,same,3,special,3,18,2
city,lawrence,NE,-98.25954,40.291047,12,60,11,73,woman,15,bi,10,fun,9,sexy,8,w4w,8
city,"victoria, TX",TX,-97.033759,28.752488,10,32,12,1,love,4,more,4,want,4,m4w,3,maybe,3
city,albuquerque,NM,-106.672872,35.044339,1372,521,111,57,m4m,324,fun,120,bottom,108,suck,92,top,90
city,port huron,MI,-82.66522,42.824095,0,38,0,37,want,8,woman,8,m,6,sexy,5,w4w,5
city,las cruces,NM,-106.604677,32.329638,148,94,20,63,m4m,34,want,15,bottom,14,out,13,top,13
city,shreveport,LA,-93.75256,32.607556,35,111,39,38,friend,12,girl,12,m4m,11,m4w,10,man,10
city,"albany, GA",GA,-84.132357,31.591073,15,25,25,64,w4w,8,friends,7,love,6,4,5,girl,5
city,lynchburg,MO,-92.30882,37.522073,0,38,0,40,friend,10,maybe,7,more,7,seeking,6,femme,5
city,waterloo,NE,-96.305914,41.248299,22,38,15,45,woman,10,seeking,9,girl,8,ltr,8,fun,6
city,long island,KS,-99.347075,39.784708,1173,726,152,0,m4m,266,guy,127,married,115,fun,108,want,104
city,houma,LA,-90.732776,29.597188,14,33,11,45,real,7,fun,6,m4m,6,seeking,6,something,6
city,raleigh,IL,-88.549793,37.822856,2746,959,232,76,m4m,587,fun,300,guy,221,top,214,need,178
city,charleston,AR,-93.95098,35.387924,389,354,116,65,m4m,82,fun,58,guy,44,bottom,40,woman,39
city,lewiston,CA,-122.837262,40.736068,6,23,4,68,friends,11,girl,8,seeking,6,want,6,friend,5
city,austin,NV,-117.196690,40.046976,4488,1526,202,125,m4m,925,top,408,bottom,388,guy,354,need,334
city,"bloomington, IL",IL,-88.939637,40.488468,48,66,13,45,m4m,13,fun,11,guy,8,want,8,date,7
city,humboldt,AZ,-112.252340,34.518883,36,105,25,43,girl,14,new,12,single,12,more,11,m4m,9
city,roswell,NM,,,0,0,0,39,more,4,couple,3,friends,3,maybe,3,mw4w,3
city,gulfport,MS,-89.031635,30.400079,58,147,36,23,m4m,19,fun,17,seeking,14,out,11,female,10
city,"bloomington, IN",IN,-86.501543,39.173234,33,102,29,50,seeking,15,woman,11,m4m,10,m4w,10,friend,9
city,del rio,TX,-101.230032,29.763171,7,12,2,56,w4w,9,friend,5,fwb,5,gf,4,girl,4
city,new york,NY,-73.977182,40.780751,4133,6216,293,300,m4m,883,top,455,guy,365,bottom,299,hot,247
city,danville,WA,-118.505768,48.954016,29,31,7,36,seeking,7,woman,7,good,6,lady,5,w4w,5
city,muncie,IL,-87.844689,40.116478,38,77,0,0,love,10,guy,8,m4m,7,friend,6,guys,6
city,sioux falls,SD,-96.79134,43.674582,37,110,37,0,love,11,fun,8,ltr,8,guy,7,m4m,7
city,pittsburgh,PA,-80.024817,40.434436,2463,1187,189,77,m4m,451,fun,233,need,193,guy,168,top,146
city,yakima,WA,-120.794978,46.637538,35,87,12,9,seeking,11,fun,8,out,8,date,7,guy,7
city,vermont,IL,-90.393432,40.285383,122,213,45,60,seeking,31,fun,26,woman,22,man,18,guy,16
city,"panama city, FL",FL,-85.916988,30.243832,35,105,0,36,fun,15,m4m,12,girl,10,seeking,8,country,7
city,hartford,AR,-94.353779,35.060177,676,339,72,55,m4m,171,fun,65,bottom,55,top,52,seeking,46
city,evansville,WY,-106.175375,42.899153,43,116,37,72,m4m,23,fun,17,friends,14,friend,13,woman,13
city,holland,TX,-97.418108,30.887588,12,31,10,85,woman,11,friends,9,friend,8,fun,8,girl,7
city,western IL,NE,-97.265045,40.403717,21,46,6,37,friends,7,m4m,7,girl,5,real,5,seeking,5
city,"columbia, MO",MO,-92.102153,38.903318,81,169,72,25,m4m,25,fun,18,woman,18,guy,14,man,13
city,youngstown,OH,-80.802854,41.017082,64,127,51,22,seeking,23,woman,16,real,15,m4m,14,girl,12
city,ventura,CA,-119.146228,34.356248,957,258,57,23,m4m,271,cock,88,suck,87,need,70,want,63
city,fort dodge,IA,-94.166587,42.438596,31,14,10,52,girl,9,m4m,7,fun,6,bi,5,friend,5
city,prescott,WA,-118.455541,46.354972,0,38,0,0,new,6,woman,4,guy,3,someone,3,buddy,2
city,laredo,TX,-99.505138,27.732094,28,32,19,32,m4m,13,woman,7,relationship,5,cock,4,friends,4
city,charlotte,TX,-98.655756,28.814293,2601,1172,342,123,m4m,680,guy,214,fun,196,seeking,195,need,170
city,boston,IN,-84.848442,39.757864,1167,346,60,34,m4m,298,guy,139,fun,82,top,79,suck,74
city,worcester,PA,-75.357555,40.192881,289,240,69,21,m4m,80,guy,41,fun,38,woman,35,seeking,33
city,reno,NV,-119.586934,40.541218,540,379,41,0,m4m,122,top,67,fun,54,bottom,51,seeking,44
city,tuscaloosa,AL,-87.585902,33.307222,56,51,24,50,need,14,friend,13,m4m,11,seeking,11,white,9
city,dallas,OR,-123.337291,44.928092,9108,3178,745,399,m4m,2060,top,912,bottom,785,guy,701,fun,664
city,parkersburg,IL,-88.011149,38.587985,37,0,0,0,fun,5,m4m,5,something,3,bottom,2,buddy,2
city,san diego,CA,-117.191848,32.751575,637,322,37,0,m4m,158,guy,67,top,65,bottom,55,fun,52
city,mcallen,TX,-98.224206,26.409709,267,224,80,40,m4m,60,top,28,busco,26,fun,23,guy,22
city,santa maria,CA,-120.495723,34.953532,37,38,0,39,m4m,10,girl,8,good,6,need,5,new,5
city,"monroe, LA",LA,-92.159354,32.490777,0,39,0,39,friend,7,girl,5,m4w,5,need,5,fun,4
city,fort smith,AR,-94.23816,35.191046,43,104,29,31,fun,10,ltr,10,m4m,10,m4w,10,lady,9
city,peoria,AZ,-112.187170,33.276539,39,77,40,40,fun,10,seeking,10,new,9,bbw,8,fwb,7
city,"dothan, AL",AL,-85.4828,31.219697,30,71,25,59,fun,13,seeking,11,m4m,9,w4w,9,love,8
city,grand island,NE,-98.521343,40.872531,15,31,18,74,friend,11,woman,10,girl,9,seeking,7,more,6
city,jersey shore,PA,-77.025687,41.208518,483,229,38,19,m4m,157,seeking,53,bottom,44,fun,44,top,43
city,dayton,WA,-117.949530,46.392683,318,391,101,36,m4m,71,woman,47,fun,34,seeking,34,guy,32
city,omaha,TX,-94.739141,33.179537,309,467,79,40,m4m,82,guy,36,seeking,35,woman,35,need,33
city,gadsden,AZ,-114.774342,32.530155,33,51,15,11,m4m,11,seeking,10,fun,7,ltr,6,m4w,5
city,mobile,AL,-88.226989,30.666959,77,154,40,0,m4m,26,bottom,15,seeking,14,guy,12,woman,12
city,hanford,CA,-119.894727,36.138861,25,17,6,57,friend,8,new,6,curious,5,girl,5,m4m,5
city,wichita,KS,-97.480419,37.693588,117,314,67,59,m4m,36,girl,30,seeking,27,m4w,24,man,22
city,"lancaster, PA",PA,-76.297582,40.0185,83,150,37,8,m4m,24,man,15,seeking,14,something,13,fun,12
city,los angeles,CA,-118.298662,33.786594,3546,1027,180,109,m4m,903,top,390,guy,338,bottom,289,cock,241
city,eastern WV,KY,-82.818388,37.512564,193,138,6,19,m4m,8,guy,5,woman,5,fun,4,friend,3
city,moses lake,WA,-119.298979,47.180684,0,0,0,39,friends,6,seeking,6,bbw,4,fwb,4,fun,3
city,"jackson, MI",MI,-84.213755,42.252847,34,55,10,70,seeking,17,fun,11,woman,10,girl,9,new,8
city,bellingham,WA,-121.988548,48.814753,28,115,38,20,girl,15,seeking,13,guy,11,fun,9,love,7
city,"jacksonville, FL",FL,,,1171,659,133,102,m4m,302,fun,106,guy,89,bottom,88,seeking,83
city,"jackson, MS",MS,-89.992257,32.319905,102,160,41,54,m4m,20,real,18,white,18,woman,17,man,15
city,maine,NY,-76.046399,42.253754,534,500,81,0,m4m,165,fun,61,seeking,60,guy,50,want,50
city,cookeville,TN,-85.469451,36.182723,15,41,19,18,love,6,woman,6,friend,5,girl,5,m4w,5
city,lansing,KS,-94.883026,39.233204,94,139,57,66,m4m,31,girl,21,seeking,19,need,18,fun,17
city,southwest VA,PA,-79.439801,40.360223,13,16,24,20,friend,8,fun,7,love,7,man,6,lady,5
city,boulder,UT,-111.308206,37.844777,106,158,29,15,m4m,25,guy,23,fun,17,seeking,17,girl,14
city,"brunswick, GA",GA,-81.530477,31.280403,32,32,24,40,m4m,10,lady,8,w4w,7,man,6,need,6
city,"columbus, GA",GA,-84.874123,32.491005,58,131,73,22,soldier,18,m4m,17,man,17,seeking,14,woman,13
city,western MD,NE,-97.265045,40.403717,21,46,6,37,m4m,7,seeking,7,woman,6,wanted,5,friendship,4
city,lexington,OR,-119.638037,45.493821,296,347,79,32,m4m,67,seeking,45,guy,40,fun,38,ltr,28
city,terre haute,IN,-87.410094,39.433602,25,36,37,56,good,10,m4m,10,w4w,9,man,8,real,8
city,kirksville,MO,-92.609514,40.165717,3,8,4,61,girl,9,w4w,6,friend,5,fun,5,friends,4
city,kalamazoo,MI,,,36,84,26,79,girl,13,ltr,12,seeking,12,friend,11,fun,11
city,"jackson, TN",TN,-88.841225,35.612405,63,98,33,50,m4m,22,real,18,need,14,woman,13,black,12
city,central SD,AK,-151.025085,65.226375,2703,614,26,77,m4m,8,love,5,fun,4,man,4,real,4
city,roseburg,OR,-123.360805,43.053573,0,37,0,39,more,6,seeking,5,country,4,friends,4,girl,4
city,hattiesburg,MS,-89.294772,31.172142,27,52,37,47,m4m,9,seeking,9,here,8,real,8,white,8
city,madison,CA,-121.972096,38.671903,214,338,75,39,guy,50,m4m,47,fun,40,seeking,30,woman,29
city,ocala,FL,-82.087458,29.240728,75,151,39,0,m4m,28,woman,27,need,18,seeking,18,man,14
city,wichita falls,TX,-98.576573,33.87121,11,54,17,3,good,6,ltr,6,old,5,real,5,girl,4
city,battle creek,NE,-97.568855,41.976904,16,21,15,81,friends,9,girl,7,seeking,7,something,7,w4w,7
city,knoxville,AR,-93.335178,35.385081,651,505,96,64,m4m,186,seeking,74,cock,67,suck,58,good,50
city,toledo,WA,-122.794980,46.456038,174,248,63,26,m4m,54,seeking,33,guy,27,woman,27,young,25
city,reading,KS,-96.01436,38.533232,75,117,0,0,m4m,25,woman,11,mature,9,seeking,9,guy,8
city,yuma,AZ,-114.074901,32.751632,50,53,16,1,m4m,18,bottom,6,y,6,friend,5,para,5
city,central MI,AK,-151.025085,65.226375,2703,614,26,77,girl,14,seeking,11,friend,10,fun,10,woman,8
city,nashville,AR,-93.942206,34.024903,2747,989,191,75,m4m,572,guy,244,fun,206,bottom,197,need,194
city,boise,ID,-116.243984,43.459855,269,436,124,62,m4m,76,out,43,fun,42,seeking,38,want,34
city,"decatur, IL",IL,-88.981511,39.853981,8,19,14,48,fwb,5,new,5,s,5,curious,4,friends,4
city,butte,NE,-98.847065,42.911492,67,11,49,25,m4m,14,girl,9,man,9,friend,6,fun,6
city,las vegas,NV,-114.972061,35.927901,5162,1946,268,272,m4m,1102,guy,439,top,423,cock,379,fun,374
city,statesboro,GA,-81.715799,32.450032,15,33,15,18,something,7,man,5,female,4,guy,4,m4w,4
city,lawton,OK,-98.387482,34.560957,24,57,38,12,guy,8,seeking,8,friend,7,real,7,love,6
city,baltimore,OH,-82.665141,39.77796,2701,1051,218,154,m4m,636,top,232,guy,213,bottom,212,fun,174
city,san luis obispo,CA,-120.455345,35.347065,142,143,36,36,m4m,45,fun,19,guy,17,need,17,hosting,14
city,owensboro,KY,-87.112823,37.745491,0,0,0,39,fun,3,girl,3,lady,3,real,3,fem,2
city,meadville,MO,-93.295805,39.795407,0,0,0,37,friends,4,fem,3,female,3,w4w,3,wanted,3
city,corpus christi,TX,-97.463213,27.777,176,178,45,33,m4m,48,fun,20,woman,19,good,18,ltr,18
city,tuscarawas co,OH,-81.406883,40.395881,6,14,11,45,friends,7,bi,5,fem,5,friend,5,u,5
city,odessa,WA,-118.658816,47.344402,76,153,40,39,fun,23,m4m,18,seeking,13,cock,12,good,12
city,huntsville,UT,-111.715855,41.266035,152,215,49,29,m4m,30,seeking,27,fun,19,girl,17,need,16
city,"erie, PA",PA,-80.064915,42.182748,44,80,57,23,guy,13,out,11,woman,11,m4m,10,m4w,10
city,williamsport,IN,-87.403882,40.314172,52,43,24,69,fun,14,bi,11,woman,10,female,9,seeking,9
city,atlanta,ID,-115.253751,43.847915,7901,3263,771,809,m4m,1867,top,869,seeking,695,guy,662,black,655
city,stillwater,OK,-96.987458,36.093665,22,49,32,37,fun,8,need,8,girl,7,someone,7,friend,5
city,mason city,NE,-99.37871,41.283369,36,0,0,0,m4m,10,fun,4,guy,4,relationship,4,discreet,3
city,bowling green,MO,-91.174859,39.316369,44,58,27,41,seeking,12,m4m,8,out,8,friend,7,good,6
city,bemidji,MN,-94.822154,47.625699,8,11,11,52,friends,7,love,7,something,7,more,6,w4w,6
city,des moines,NM,-103.505541,36.369783,125,333,106,47,seeking,33,woman,28,fun,27,good,24,ltr,24
city,oklahoma city,OK,-97.407537,35.551409,1244,825,150,73,m4m,319,need,123,guy,116,fun,111,seeking,109
city,iowa city,IA,-91.589264,41.600628,12,54,21,51,fun,14,girl,10,seeking,8,love,7,man,7
city,seattle,WA,-122.264256,47.776875,400,258,77,38,m4m,118,guy,43,cock,32,want,30,woman,30
city,salina,UT,-111.908156,38.921403,0,0,0,38,woman,5,w4w,4,female,3,friend,3,fun,3
city,kalispell,MT,-114.256123,48.240382,8,39,16,58,girl,12,friends,9,friend,8,guy,6,more,6
city,annapolis,CA,-123.386924,38.710387,73,71,41,4,fun,11,m4m,11,mwm,11,guy,9,man,8
city,"wilmington, NC",NC,-77.91859,34.127458,81,189,63,20,guy,19,real,17,woman,16,m4m,14,seeking,14
city,myrtle beach,SC,,,144,181,38,0,m4m,51,fun,17,m4w,17,woman,17,friend,14
city,utica,NE,-97.292178,40.938023,38,89,31,59,m4m,15,fun,13,seeking,12,ltr,10,female,9
city,ashtabula,OH,-80.955313,41.730146,6,32,5,48,guy,7,friends,6,u,6,fem,5,female,5
city,chautauqua,KS,-96.178281,37.026243,13,30,14,72,friends,9,girl,9,new,8,real,7,w4w,7
city,indianapolis,IN,-86.132837,39.779492,1402,703,156,88,m4m,353,need,123,suck,114,guy,109,seeking,105
city,columbia,CA,-120.363545,38.061003,480,328,115,47,m4m,145,seeking,54,top,54,want,52,white,46
city,zanesville,IN,-85.282422,40.918797,14,22,14,70,girl,8,w4w,8,woman,8,bbw,7,fun,6
city,sacramento,CA,-121.444429,38.377411,357,142,37,0,m4m,98,bottom,39,guy,33,top,33,cock,31
city,kansas city,KS,-94.749538,39.096551,2159,1121,249,85,m4m,344,bottom,194,need,184,guy,174,top,162
city,"washington, DC",DC,-77.014647,38.893311,991,279,82,20,m4m,239,top,108,bottom,100,guy,81,fun,73
city,chattanooga,OK,-98.654352,34.424316,202,218,74,27,m4m,55,friend,26,fun,26,man,23,seeking,22
city,south bend,WA,-123.834262,46.588006,75,150,39,0,seeking,17,fun,12,love,12,woman,12,man,10
city,abilene,TX,-99.711665,32.466474,39,69,16,68,m4m,14,seeking,10,fun,8,girl,8,m4w,8
city,el paso,TX,-106.299987,31.694842,866,462,96,56,m4m,179,guy,76,bottom,59,fun,58,top,57
city,grand rapids,MN,-93.921429,47.087782,136,345,69,68,seeking,36,man,32,guy,31,girl,28,woman,26
city,"sheboygan, WI",WI,-87.860803,43.775428,0,0,0,37,seeking,4,stud,4,woman,4,dating,3,searching,3
city,southwest KS,PA,-79.439801,40.360223,13,16,24,20,female,8,maybe,7,fun,6,girl,6,more,6
city,twin falls,ID,-114.519536,42.456273,16,52,18,71,fun,10,woman,9,man,8,seeking,8,w4w,8
city,"columbus, OH",OH,-83.011389,39.969036,1746,889,195,70,m4m,411,guy,144,fun,134,seeking,123,suck,120
city,savannah,MO,-94.837827,39.953094,152,220,38,39,m4m,36,guy,22,seeking,21,single,20,fun,17
city,mendocino co,CA,-123.734377,39.319949,0,0,0,34,more,6,bi,5,friends,3,girl,3,maybe,3
city,montgomery,TX,-95.49833,30.354902,36,73,0,39,m4m,12,need,11,young,10,older,8,fun,7
city,ithaca,NE,-96.523011,41.147084,66,73,21,79,fun,17,s,15,m4m,13,female,11,need,11
city,"springfield, IL",IL,-89.606017,39.749457,62,77,28,38,m4m,16,guy,11,m,11,bottom,9,fun,9
city,winchester,OR,-123.325617,43.333141,15,76,19,2,seeking,11,guy,8,friends,7,country,6,girl,6
city,eastern CO,KY,-82.818388,37.512564,193,138,6,19,latina,4,_,3,good,3,love,3,man,3
city,kokomo,IN,-86.11894,40.469625,9,40,17,51,w4w,10,seeking,8,woman,7,lady,6,real,6
city,eastern CT,KY,-82.818388,37.512564,193,138,6,19,m4m,34,guy,21,fun,16,good,16,friend,15
city,"jacksonville, NC",NC,-77.444847,34.720825,38,153,120,24,out,19,fun,17,good,16,marine,16,m4w,15
city,amarillo,TX,-101.895089,35.401475,156,177,102,110,m4m,36,bottom,28,woman,28,seeking,22,need,20
city,jonesboro,TX,-97.845634,31.559947,34,55,22,27,m4m,13,fun,8,real,7,something,6,suck,6
city,"fayetteville, AR",AR,-94.309322,36.087732,111,198,67,26,m4m,33,woman,24,seeking,19,girl,18,fun,16
city,lincoln,WA,-118.399551,47.60894,38,155,0,78,woman,22,friend,15,date,12,fun,12,seeking,12
city,saginaw,OR,-122.998790,43.863845,0,76,39,38,fun,12,girl,12,seeking,9,friend,8,relationship,8
city,baton rouge,LA,-91.080373,30.51589,415,275,91,40,m4m,99,seeking,49,white,43,guy,35,top,35
city,orlando,OK,-97.408181,35.944569,3544,1263,192,116,m4m,897,fun,316,top,284,suck,278,bottom,276
city,san antonio,NM,-106.876440,33.963287,3556,1259,338,148,m4m,777,top,362,bottom,275,guy,268,fun,250
city,duluth,MN,-92.442797,47.640367,25,78,25,45,fun,11,woman,10,out,9,seeking,9,m4m,8
city,chico,CA,-121.572986,39.723898,57,96,23,38,guy,15,seeking,14,girl,13,fun,11,date,9
city,brainerd,MN,-94.099983,46.350195,5,26,5,51,woman,8,friends,6,love,6,more,6,something,5
city,elko,NV,-115.529596,41.059414,2,15,4,72,fun,9,new,9,w4w,9,woman,7,someone,6
city,central LA,AK,-151.025085,65.226375,2703,614,26,77,friend,11,m4m,9,need,9,good,8,w4w,8
city,la crosse,KS,-99.300546,38.531867,22,86,45,49,fun,13,guy,8,man,8,love,7,real,7
city,altoona,KS,-95.661801,37.525023,114,178,64,134,girl,24,fun,20,seeking,20,man,18,want,18
city,cleveland,NM,-105.382548,36.007478,1575,712,134,86,m4m,427,seeking,142,bottom,121,fun,110,need,106
city,new haven,MO,-91.247283,38.558487,583,287,39,0,m4m,130,guy,61,bottom,51,suck,50,cock,47
city,delaware,OK,-95.641981,36.777208,945,352,69,36,m4m,182,seeking,77,suck,66,fun,65,guy,64
city,fort wayne,IN,-85.070713,41.093763,75,196,59,69,woman,29,m4w,28,m4m,27,seeking,23,fun,18
city,san angelo,TX,-100.689590,31.39577,0,37,0,0,ltr,4,m4w,4,male,4,seeking,3,woman,3
city,western KY,NE,-97.265045,40.403717,21,46,6,37,love,12,single,10,fun,9,girl,7,m4w,7
city,binghamton,NY,-75.922159,42.173709,29,89,20,55,woman,18,seeking,13,female,12,ltr,11,m4m,11
city,"charleston, WV",WV,-81.554655,38.296818,43,56,31,31,ltr,10,seeking,10,love,8,something,8,want,8
city,anchorage,AK,-149.440311,61.108864,138,273,77,22,m4m,45,guy,25,woman,20,girl,18,seeking,18
city,topeka,KS,-95.769657,39.042939,14,74,20,66,woman,17,friend,12,bi,10,more,10,girl,9
city,joplin,MO,-94.374452,37.099335,29,107,45,49,woman,14,friend,12,seeking,12,good,11,want,11
city,greensboro,IN,-85.464036,39.878933,625,356,113,66,m4m,218,black,65,top,65,guy,52,fun,47
city,fredericksburg,TX,-98.8936,30.313385,103,184,54,16,m4m,31,seeking,20,woman,19,m4w,15,need,15
city,orange co,CA,-117.769442,33.640302,6923,2025,297,112,m4m,1315,guy,632,top,603,fun,560,bottom,546
city,waco,TX,-97.16148,31.541116,81,78,40,11,m4m,14,seeking,14,guy,13,real,10,cock,9
city,philadelphia,MO,-91.738022,39.82473,6040,1704,297,222,m4m,1187,fun,492,top,470,now,437,bottom,424
city,daytona beach,FL,-81.172169,29.022729,183,256,60,17,m4m,49,seeking,29,woman,23,friend,19,guy,19
city,sioux city,IA,-96.378007,42.423688,0,37,0,74,woman,11,friend,10,girl,7,out,7,real,6
city,tippecanoe,IN,-86.12282,41.215971,35,71,29,56,need,11,good,10,w4w,10,fun,9,girl,9
city,klamath falls,OR,-121.685853,42.61276,43,25,29,32,m4m,8,love,6,new,6,older,6,out,6
city,palm springs,CA,-116.055617,33.752886,988,143,0,0,m4m,208,bottom,93,cock,92,top,78,bi,60
city,memphis,TX,-100.539782,34.730964,818,404,77,117,m4m,248,white,121,guy,71,bottom,64,top,63
city,flagstaff,AZ,-112.052427,35.630842,80,56,14,7,m4m,18,top,13,seeking,11,guy,10,girl,7
city,fort collins,CO,-105.569245,40.628112,101,277,60,30,girl,25,fun,21,m4w,21,guy,20,m4m,20
city,santa fe,ID,-116.430997,47.154416,191,38,0,38,m4m,54,fun,28,daddy,14,guy,14,young,13
city,tucson,AZ,-110.859106,32.071764,372,480,77,49,m4m,93,seeking,51,woman,41,want,38,guy,37
city,north MS,SC,-81.07622,33.554183,73,112,40,38,m4m,26,woman,19,man,13,seeking,13,good,12
city,san marcos,CA,-116.846046,33.016928,38,37,0,0,m4m,12,top,6,student,5,bottom,4,cock,4
city,lakeland,LA,-91.446813,30.575993,71,139,45,17,m4m,21,woman,19,man,15,seeking,15,m4w,13
city,frederick,CO,-104.938057,40.123557,52,78,23,4,m4m,17,guy,10,bottom,7,seeking,7,cock,6
city,janesville,CA,-120.506184,40.298255,30,67,14,7,seeking,11,m4m,10,ltr,8,fun,7,man,7
city,little rock,AR,-92.392487,34.751918,253,333,75,39,m4m,78,m4w,32,guy,28,fun,26,woman,24
city,minneapolis,KS,-97.650674,39.141097,3998,1743,262,74,m4m,884,guy,363,fun,349,top,345,bottom,325
city,salem,OR,-123.006606,44.965541,38,153,0,0,m4m,13,seeking,13,date,12,fun,11,woman,10
city,portland,OR,-122.374776,45.580557,255,145,39,0,m4m,67,seeking,22,cock,20,guy,20,need,19
city,"florence, SC",SC,-79.622227,34.061465,32,43,21,11,m4m,10,man,7,real,7,black,6,m4w,6
city,allentown,GA,-83.20951,32.606433,240,340,61,11,m4m,70,fun,44,seeking,32,woman,27,guy,26
city,gainesville,TX,-97.03692,33.610384,184,147,30,19,m4m,54,guy,21,older,17,younger,17,bottom,16
city,"clarksville, TN",TN,-87.353008,36.531398,32,128,88,28,man,16,someone,15,love,13,s,13,woman,13
city,manhattan,NV,-116.310045,38.702281,0,38,0,37,friend,8,girl,6,one,6,bi,5,seeking,5
city,phoenix,OR,-122.814640,42.262556,6392,2611,461,230,m4m,1456,bottom,559,top,535,guy,534,need,466
city,dubuque,IA,-90.804116,42.484861,10,38,14,64,fun,9,seeking,8,love,7,friends,6,guy,6
city,kenai,AK,-150.407958,60.422041,41,20,60,22,m4m,15,guy,7,love,7,man,7,seeking,6
city,scranton,AR,-93.53721,35.344745,219,148,39,38,m4m,54,guy,32,bi,27,seeking,25,older,19
city,ogden,UT,-111.956721,41.255285,80,39,0,40,m4m,28,need,10,more,9,play,9,fun,8
city,watertown,SD,-97.177954,44.955643,15,98,55,41,woman,11,girl,10,fun,9,man,9,seeking,8
city,lafayette,OR,-123.110948,45.232882,87,107,45,48,m4m,21,guy,17,real,15,woman,13,fun,12
city,boone,CO,-104.209119,38.319575,25,22,15,26,m4m,7,seeking,6,boone,5,2,4,fun,4
city,buffalo,WY,-106.561068,44.122611,672,464,94,50,m4m,145,fun,61,seeking,61,guy,58,need,45
city,santa barbara,CA,-119.848555,34.262834,501,138,35,0,m4m,70,fun,42,top,37,guy,36,bottom,34
label,city,state,lon,lat,m4m,m4w,w4m,w4w,k1,c1,k2,c2,k3,c3,k4,c4,k5,c5
state,WA,WA,,,1546,2590,673,454,m4m,361,seeking,204,guy,178,woman,174,fun,142
state,DC,DC,,,991,279,82,20,m4m,239,top,108,bottom,100,guy,81,fun,73
state,WI,WI,,,1114,1123,238,239,m4m,269,fun,124,seeking,115,guy,113,bottom,81
state,WV,WV,,,43,56,31,31,ltr,10,seeking,10,love,8,something,8,want,8
state,FL,FL,,,2671,2362,463,284,m4m,740,guy,236,fun,231,seeking,205,woman,177
state,WY,WY,,,715,580,131,122,m4m,168,fun,78,seeking,61,guy,58,need,45
state,NM,NM,,,6794,2947,726,592,m4m,1562,bottom,518,fun,515,top,465,guy,268
state,TX,TX,,,6422,4534,1144,1096,m4m,1597,guy,484,fun,399,seeking,347,need,290
state,LA,LA,,,2150,1217,344,403,m4m,540,top,179,guy,150,fun,139,bottom,130
state,NC,NC,,,404,872,427,151,m4m,85,woman,76,seeking,74,man,37,fun,36
state,ND,ND,,,44,39,29,22,m4m,13,ltr,8,seeking,7,guy,6,want,6
state,NE,NE,,,1862,1528,476,803,m4m,477,fun,180,seeking,176,bottom,141,top,117
state,TN,TN,,,110,267,140,96,woman,32,m4m,22,love,19,real,18,man,16
state,NY,NY,,,5975,1542,614,258,m4m,1312,guy,542,top,455,bottom,351,hot,247
state,PA,PA,,,3561,2210,584,313,m4m,757,fun,359,guy,243,need,193,top,189
state,AK,AK,,,19122,5511,805,853,m4m,2472,guy,1022,top,910,bottom,777,now,585
state,NV,NV,,,10192,3904,515,506,m4m,2149,top,898,guy,793,bottom,439,fun,437
state,VA,VA,,,891,673,150,76,m4m,164,fun,95,bottom,95,top,92,white,85
state,CO,CO,,,6448,3017,526,259,m4m,1328,guy,575,fun,550,bottom,494,top,457
state,CA,CA,,,17848,6865,1232,958,m4m,3972,guy,1394,top,1349,bottom,1195,fun,861
state,AL,AL,,,794,618,208,202,m4m,176,fun,84,need,72,suck,62,black,55
state,AR,AR,,,5222,3164,761,442,m4m,1216,fun,408,guy,372,bottom,292,need,194
state,IL,IL,,,5094,2373,512,420,m4m,1170,fun,555,guy,435,top,361,need,333
state,GA,GA,,,532,739,255,214,m4m,137,seeking,80,fun,64,man,46,woman,40
state,IN,IN,,,3571,2052,557,718,m4m,943,guy,300,fun,189,suck,188,seeking,176
state,IA,IA,,,1507,944,275,355,m4m,495,fun,173,guy,126,need,121,suck,103
state,AZ,AZ,,,610,822,187,151,m4m,149,seeking,82,guy,47,woman,41,want,38
state,ID,ID,,,8377,3789,913,980,m4m,1997,top,869,seeking,741,guy,676,black,655
state,OK,OK,,,6486,3515,799,430,m4m,1582,fun,585,suck,344,top,284,bottom,276
state,OH,OH,,,5235,2835,598,409,m4m,1248,guy,446,fun,366,top,232,seeking,216
state,UT,UT,,,1054,790,136,218,m4m,188,fun,135,guy,82,seeking,80,need,49
state,MO,MO,,,6969,2707,561,514,m4m,1398,fun,541,bottom,475,top,470,now,437
state,MN,MN,,,166,497,110,253,woman,55,seeking,45,man,32,guy,31,girl,28
state,MI,MI,,,344,392,93,249,seeking,63,m4m,52,fun,46,guy,34,girl,29
state,KS,KS,,,7779,4567,930,644,m4m,1586,guy,680,bottom,519,top,507,fun,507
state,MT,MT,,,169,172,136,109,girl,41,m4m,35,fun,25,man,21,seeking,18
state,MS,MS,,,187,359,114,124,m4m,48,real,26,white,26,seeking,23,woman,17
state,SC,SC,,,249,374,99,87,m4m,87,woman,36,m4w,23,fun,21,man,20
state,KY,KY,,,1018,812,81,145,m4m,90,fun,60,seeking,59,woman,53,good,46
state,OR,OR,,,16850,8250,1776,1251,m4m,3811,top,1447,guy,1419,bottom,1364,fun,817
state,SD,SD,,,52,246,130,41,fun,17,woman,11,love,11,girl,10,man,9
country,USA,USA,,,161168,82133,18561,15492,m4m,34650,guy,11234,top,9768,fun,9368,bottom,7790
